STARLINK-35650          
1 66573U 25268S   25344.83334491 -.00050743  00000+0 -86465-3 0  9995
2 66573  43.0003 132.2731 0002101 278.6858 356.2873 15.50579211  4369
STARLINK-35812          
1 66574U 25268T   25344.83334491 -.00089271  00000+0 -15317-2 0  9991
2 66574  43.0003 132.2678 0001650 273.6133   3.2591 15.50607000  4363
STARLINK-35810          
1 66575U 25268U   25344.83334491 -.00081848  00000+0 -14026-2 0  9990
2 66575  43.0003 132.2632 0001608 275.5710   3.2156 15.50605645  4369
STARLINK-35814          
1 66576U 25268V   25344.83334491 -.00089632  00000+0 -15380-2 0  9994
2 66576  43.0003 132.2582 0001643 267.9850  12.7240 15.50605868  4369
STARLINK-35815          
1 66577U 25268W   25344.83334491  .00034039  00000+0  58388-3 0  9990
2 66577  43.0003 132.2540 0001640 274.2948   8.3347 15.50561176  4362
STARLINK-35743          
1 66578U 25268X   25344.83334491 -.00085518  00000+0 -14665-2 0  9990
2 66578  43.0003 132.2487 0001467 269.4808  15.0613 15.50605242  4365
STARLINK-35868          
1 66579U 25268Y   25344.83334491 -.00095032  00000+0 -16318-2 0  9990
2 66579  43.0004 132.2437 0001543 269.1630  17.2907 15.50611775  4365
STARLINK-35872          
1 66580U 25268Z   25344.83334491 -.00090993  00000+0 -15615-2 0  9992
2 66580  43.0004 132.2395 0001437 271.7466  16.6256 15.50611136  4369
STARLINK-35744          
1 66581U 25268AA  25344.83334491  .00024287  00000+0  41958-3 0  9994
2 66581  43.0004 132.2337 0001402 271.1769  19.1582 15.50507122  4312
STARLINK-35746          
1 66582U 25268AB  25344.83334491 -.00094083  00000+0 -16153-2 0  9996
2 66582  43.0003 132.2293 0001618 272.7753  19.4285 15.50612038  4363
STARLINK-35941          
1 66583U 25268AC  25344.83334491 -.00096189  00000+0 -16520-2 0  9994
2 66583  43.0003 132.2245 0001612 272.2523  21.8732 15.50612118  4368
STARLINK-35939          
1 66584U 25268AD  25344.83334491  .00008936  00000+0  15783-3 0  9997
2 66584  43.0003 132.2202 0001694 279.0581  16.9822 15.50603882  4364
