CCSDS_OMM_VERS = 2.0
CREATION_DATE  = 
ORIGINATOR     = 

OBJECT_NAME    = STARLINK-35650
OBJECT_ID      = 2025-268S
CENTER_NAME    = EARTH
REF_FRAME      = TEME
TIME_SYSTEM    = UTC
MEAN_ELEMENT_THEORY = SGP/SGP4

EPOCH          = 2025-12-10T20:00:01.000224
MEAN_MOTION    = 15.50579211
ECCENTRICITY   = .0002101
INCLINATION    = 43.0003
RA_OF_ASC_NODE = 132.2731
ARG_OF_PERICENTER = 278.6858
MEAN_ANOMALY   = 356.2873

EPHEMERIS_TYPE = 0
CLASSIFICATION_TYPE = U
NORAD_CAT_ID   = 66573
ELEMENT_SET_NO = 999
REV_AT_EPOCH   = 436
BSTAR          = -.86465E-3
MEAN_MOTION_DOT = -.50743E-3
MEAN_MOTION_DDOT = 0

CCSDS_OMM_VERS = 2.0
CREATION_DATE  = 
ORIGINATOR     = 

OBJECT_NAME    = STARLINK-35812
OBJECT_ID      = 2025-268T
CENTER_NAME    = EARTH
REF_FRAME      = TEME
TIME_SYSTEM    = UTC
MEAN_ELEMENT_THEORY = SGP/SGP4

EPOCH          = 2025-12-10T20:00:01.000224
MEAN_MOTION    = 15.50607000
ECCENTRICITY   = .000165
INCLINATION    = 43.0003
RA_OF_ASC_NODE = 132.2678
ARG_OF_PERICENTER = 273.6133
MEAN_ANOMALY   = 3.2591

EPHEMERIS_TYPE = 0
CLASSIFICATION_TYPE = U
NORAD_CAT_ID   = 66574
ELEMENT_SET_NO = 999
REV_AT_EPOCH   = 436
BSTAR          = -.15317E-2
MEAN_MOTION_DOT = -.89271E-3
MEAN_MOTION_DDOT = 0

CCSDS_OMM_VERS = 2.0
CREATION_DATE  = 
ORIGINATOR     = 

OBJECT_NAME    = STARLINK-35810
OBJECT_ID      = 2025-268U
CENTER_NAME    = EARTH
REF_FRAME      = TEME
TIME_SYSTEM    = UTC
MEAN_ELEMENT_THEORY = SGP/SGP4

EPOCH          = 2025-12-10T20:00:01.000224
MEAN_MOTION    = 15.50605645
ECCENTRICITY   = .0001608
INCLINATION    = 43.0003
RA_OF_ASC_NODE = 132.2632
ARG_OF_PERICENTER = 275.5710
MEAN_ANOMALY   = 3.2156

EPHEMERIS_TYPE = 0
CLASSIFICATION_TYPE = U
NORAD_CAT_ID   = 66575
ELEMENT_SET_NO = 999
REV_AT_EPOCH   = 436
BSTAR          = -.14026E-2
MEAN_MOTION_DOT = -.81848E-3
MEAN_MOTION_DDOT = 0

CCSDS_OMM_VERS = 2.0
CREATION_DATE  = 
ORIGINATOR     = 

OBJECT_NAME    = STARLINK-35814
OBJECT_ID      = 2025-268V
CENTER_NAME    = EARTH
REF_FRAME      = TEME
TIME_SYSTEM    = UTC
MEAN_ELEMENT_THEORY = SGP/SGP4

EPOCH          = 2025-12-10T20:00:01.000224
MEAN_MOTION    = 15.50605868
ECCENTRICITY   = .0001643
INCLINATION    = 43.0003
RA_OF_ASC_NODE = 132.2582
ARG_OF_PERICENTER = 267.9850
MEAN_ANOMALY   = 12.7240

EPHEMERIS_TYPE = 0
CLASSIFICATION_TYPE = U
NORAD_CAT_ID   = 66576
ELEMENT_SET_NO = 999
REV_AT_EPOCH   = 436
BSTAR          = -.1538E-2
MEAN_MOTION_DOT = -.89632E-3
MEAN_MOTION_DDOT = 0

CCSDS_OMM_VERS = 2.0
CREATION_DATE  = 
ORIGINATOR     = 

OBJECT_NAME    = STARLINK-35815
OBJECT_ID      = 2025-268W
CENTER_NAME    = EARTH
REF_FRAME      = TEME
TIME_SYSTEM    = UTC
MEAN_ELEMENT_THEORY = SGP/SGP4

EPOCH          = 2025-12-10T20:00:01.000224
MEAN_MOTION    = 15.50561176
ECCENTRICITY   = .000164
INCLINATION    = 43.0003
RA_OF_ASC_NODE = 132.2540
ARG_OF_PERICENTER = 274.2948
MEAN_ANOMALY   = 8.3347

EPHEMERIS_TYPE = 0
CLASSIFICATION_TYPE = U
NORAD_CAT_ID   = 66577
ELEMENT_SET_NO = 999
REV_AT_EPOCH   = 436
BSTAR          = .58388E-3
MEAN_MOTION_DOT = .34039E-3
MEAN_MOTION_DDOT = 0

CCSDS_OMM_VERS = 2.0
CREATION_DATE  = 
ORIGINATOR     = 

OBJECT_NAME    = STARLINK-35743
OBJECT_ID      = 2025-268X
CENTER_NAME    = EARTH
REF_FRAME      = TEME
TIME_SYSTEM    = UTC
MEAN_ELEMENT_THEORY = SGP/SGP4

EPOCH          = 2025-12-10T20:00:01.000224
MEAN_MOTION    = 15.50605242
ECCENTRICITY   = .0001467
INCLINATION    = 43.0003
RA_OF_ASC_NODE = 132.2487
ARG_OF_PERICENTER = 269.4808
MEAN_ANOMALY   = 15.0613

EPHEMERIS_TYPE = 0
CLASSIFICATION_TYPE = U
NORAD_CAT_ID   = 66578
ELEMENT_SET_NO = 999
REV_AT_EPOCH   = 436
BSTAR          = -.14665E-2
MEAN_MOTION_DOT = -.85518E-3
MEAN_MOTION_DDOT = 0

CCSDS_OMM_VERS = 2.0
CREATION_DATE  = 
ORIGINATOR     = 

OBJECT_NAME    = STARLINK-35868
OBJECT_ID      = 2025-268Y
CENTER_NAME    = EARTH
REF_FRAME      = TEME
TIME_SYSTEM    = UTC
MEAN_ELEMENT_THEORY = SGP/SGP4

EPOCH          = 2025-12-10T20:00:01.000224
MEAN_MOTION    = 15.50611775
ECCENTRICITY   = .0001543
INCLINATION    = 43.0004
RA_OF_ASC_NODE = 132.2437
ARG_OF_PERICENTER = 269.1630
MEAN_ANOMALY   = 17.2907

EPHEMERIS_TYPE = 0
CLASSIFICATION_TYPE = U
NORAD_CAT_ID   = 66579
ELEMENT_SET_NO = 999
REV_AT_EPOCH   = 436
BSTAR          = -.16318E-2
MEAN_MOTION_DOT = -.95032E-3
MEAN_MOTION_DDOT = 0

CCSDS_OMM_VERS = 2.0
CREATION_DATE  = 
ORIGINATOR     = 

OBJECT_NAME    = STARLINK-35872
OBJECT_ID      = 2025-268Z
CENTER_NAME    = EARTH
REF_FRAME      = TEME
TIME_SYSTEM    = UTC
MEAN_ELEMENT_THEORY = SGP/SGP4

EPOCH          = 2025-12-10T20:00:01.000224
MEAN_MOTION    = 15.50611136
ECCENTRICITY   = .0001437
INCLINATION    = 43.0004
RA_OF_ASC_NODE = 132.2395
ARG_OF_PERICENTER = 271.7466
MEAN_ANOMALY   = 16.6256

EPHEMERIS_TYPE = 0
CLASSIFICATION_TYPE = U
NORAD_CAT_ID   = 66580
ELEMENT_SET_NO = 999
REV_AT_EPOCH   = 436
BSTAR          = -.15615E-2
MEAN_MOTION_DOT = -.90993E-3
MEAN_MOTION_DDOT = 0

CCSDS_OMM_VERS = 2.0
CREATION_DATE  = 
ORIGINATOR     = 

OBJECT_NAME    = STARLINK-35744
OBJECT_ID      = 2025-268AA
CENTER_NAME    = EARTH
REF_FRAME      = TEME
TIME_SYSTEM    = UTC
MEAN_ELEMENT_THEORY = SGP/SGP4

EPOCH          = 2025-12-10T20:00:01.000224
MEAN_MOTION    = 15.50507122
ECCENTRICITY   = .0001402
INCLINATION    = 43.0004
RA_OF_ASC_NODE = 132.2337
ARG_OF_PERICENTER = 271.1769
MEAN_ANOMALY   = 19.1582

EPHEMERIS_TYPE = 0
CLASSIFICATION_TYPE = U
NORAD_CAT_ID   = 66581
ELEMENT_SET_NO = 999
REV_AT_EPOCH   = 431
BSTAR          = .41958E-3
MEAN_MOTION_DOT = .24287E-3
MEAN_MOTION_DDOT = 0

CCSDS_OMM_VERS = 2.0
CREATION_DATE  = 
ORIGINATOR     = 

OBJECT_NAME    = STARLINK-35746
OBJECT_ID      = 2025-268AB
CENTER_NAME    = EARTH
REF_FRAME      = TEME
TIME_SYSTEM    = UTC
MEAN_ELEMENT_THEORY = SGP/SGP4

EPOCH          = 2025-12-10T20:00:01.000224
MEAN_MOTION    = 15.50612038
ECCENTRICITY   = .0001618
INCLINATION    = 43.0003
RA_OF_ASC_NODE = 132.2293
ARG_OF_PERICENTER = 272.7753
MEAN_ANOMALY   = 19.4285

EPHEMERIS_TYPE = 0
CLASSIFICATION_TYPE = U
NORAD_CAT_ID   = 66582
ELEMENT_SET_NO = 999
REV_AT_EPOCH   = 436
BSTAR          = -.16153E-2
MEAN_MOTION_DOT = -.94083E-3
MEAN_MOTION_DDOT = 0

CCSDS_OMM_VERS = 2.0
CREATION_DATE  = 
ORIGINATOR     = 

OBJECT_NAME    = STARLINK-35941
OBJECT_ID      = 2025-268AC
CENTER_NAME    = EARTH
REF_FRAME      = TEME
TIME_SYSTEM    = UTC
MEAN_ELEMENT_THEORY = SGP/SGP4

EPOCH          = 2025-12-10T20:00:01.000224
MEAN_MOTION    = 15.50612118
ECCENTRICITY   = .0001612
INCLINATION    = 43.0003
RA_OF_ASC_NODE = 132.2245
ARG_OF_PERICENTER = 272.2523
MEAN_ANOMALY   = 21.8732

EPHEMERIS_TYPE = 0
CLASSIFICATION_TYPE = U
NORAD_CAT_ID   = 66583
ELEMENT_SET_NO = 999
REV_AT_EPOCH   = 436
BSTAR          = -.1652E-2
MEAN_MOTION_DOT = -.96189E-3
MEAN_MOTION_DDOT = 0

CCSDS_OMM_VERS = 2.0
CREATION_DATE  = 
ORIGINATOR     = 

OBJECT_NAME    = STARLINK-35939
OBJECT_ID      = 2025-268AD
CENTER_NAME    = EARTH
REF_FRAME      = TEME
TIME_SYSTEM    = UTC
MEAN_ELEMENT_THEORY = SGP/SGP4

EPOCH          = 2025-12-10T20:00:01.000224
MEAN_MOTION    = 15.50603882
ECCENTRICITY   = .0001694
INCLINATION    = 43.0003
RA_OF_ASC_NODE = 132.2202
ARG_OF_PERICENTER = 279.0581
MEAN_ANOMALY   = 16.9822

EPHEMERIS_TYPE = 0
CLASSIFICATION_TYPE = U
NORAD_CAT_ID   = 66584
ELEMENT_SET_NO = 999
REV_AT_EPOCH   = 436
BSTAR          = .15783E-3
MEAN_MOTION_DOT = .8936E-4
MEAN_MOTION_DDOT = 0

